RADARSAT-2              
1 32382U 07061A   26170.13693922  .00000136  00000+0  69784-4 0  9990
2 32382  98.5773 177.0418 0001314  84.6600 275.4732 14.29982532966231
RESOURCESAT-2           
1 37387U 11015A   26170.20049046  .00000078  00000+0  55934-4 0  9991
2 37387  98.7642 237.6281 0010220 249.0140 110.9944 14.21600256786466
RASAT                   
1 37791U 11044D   26170.22079745  .00000166  00000+0  37221-4 0  9990
2 37791  98.0580 261.5864 0020373 182.2094 232.6785 14.68167092793480
RESOURCESAT-2A          
1 41877U 16074A   26170.18226051  .00000219  00000+0  11977-3 0  9995
2 41877  98.7526 243.6706 0003298  81.2836 278.8715 14.21617543494586
RCM-1                   
1 44322U 19033A   26170.07873148 -.00000048  00000+0  70516-6 0  9992
2 44322  97.7614 177.4970 0001454  88.9895 271.1490 14.92588572382364
RCM-3                   
1 44323U 19033B   26170.16838164  .00000156  00000+0  20639-4 0  9990
2 44323  97.7598 177.6800 0001481  90.9506 269.1883 14.92586834382397
RCM-2                   
1 44324U 19033C   26170.25762696 -.00000047  00000+0  83822-6 0  9992
2 44324  97.7613 177.7180 0001427  92.3404 267.7978 14.92587561382398
QPS-SAR-7 (TSUKUYOMI-II)
1 59447U 24066F   26170.22059503  .00004397  00000+0  28981-3 0  9992
2 59447  45.6028 234.6658 0002683 308.9853  51.0793 15.08952496120530
QPS-SAR-8 (AMATERU-IV)  
1 60542U 24149CC  26170.18940917  .00003596  00000+0  26366-3 0  9990
2 60542  97.6651 249.3229 0004573 104.3463 255.8271 15.04146256100571
QPS-SAR-9 (SUSANOO-I)   
1 63205U 25050A   26170.17837841  .00004305  00000+0  32682-3 0  9998
2 63205  42.0193  91.2349 0004091 185.7760 174.3020 15.03156855 69262
