{
 "generated_at": "2026-06-19T09:28:30Z",
 "sources": [
  {
   "name": "CelesTrak",
   "url": "https://celestrak.org/NORAD/elements/",
   "license": "frei verfügbar; Attribution. Ursprünglich USSPACECOM/Space-Track."
  },
  {
   "name": "GCAT (J. McDowell, planet4589.org)",
   "url": "https://planet4589.org/space/gcat/",
   "license": "CC-BY 4.0"
  }
 ],
 "satellites": [
  {
   "norad": 59447,
   "name": "QPS-SAR-7 (TSUKUYOMI-II)",
   "intl": "2024-066F",
   "group": "sar",
   "gcat": {
    "class": "B",
    "category": "IMG-R",
    "owner": "QPS",
    "state": "J"
   },
   "omm": {
    "OBJECT_NAME": "QPS-SAR-7 (TSUKUYOMI-II)",
    "OBJECT_ID": "2024-066F",
    "EPOCH": "2026-06-19T05:17:39.410592",
    "MEAN_MOTION": 15.08952496,
    "ECCENTRICITY": 0.0002683,
    "INCLINATION": 45.6028,
    "RA_OF_ASC_NODE": 234.6658,
    "ARG_OF_PERICENTER": 308.9853,
    "MEAN_ANOMALY": 51.0793,
    "EPHEMERIS_TYPE": 0,
    "CLASSIFICATION_TYPE": "U",
    "NORAD_CAT_ID": 59447,
    "ELEMENT_SET_NO": 999,
    "REV_AT_EPOCH": 12053,
    "BSTAR": 0.00028981,
    "MEAN_MOTION_DOT": 0.00004397,
    "MEAN_MOTION_DDOT": 0
   }
  },
  {
   "norad": 60542,
   "name": "QPS-SAR-8 (AMATERU-IV)",
   "intl": "2024-149CC",
   "group": "sar",
   "gcat": {
    "class": "B",
    "category": "IMG-R",
    "owner": "QPS",
    "state": "J"
   },
   "omm": {
    "OBJECT_NAME": "QPS-SAR-8 (AMATERU-IV)",
    "OBJECT_ID": "2024-149CC",
    "EPOCH": "2026-06-19T04:32:44.952288",
    "MEAN_MOTION": 15.04146256,
    "ECCENTRICITY": 0.0004573,
    "INCLINATION": 97.6651,
    "RA_OF_ASC_NODE": 249.3229,
    "ARG_OF_PERICENTER": 104.3463,
    "MEAN_ANOMALY": 255.8271,
    "EPHEMERIS_TYPE": 0,
    "CLASSIFICATION_TYPE": "U",
    "NORAD_CAT_ID": 60542,
    "ELEMENT_SET_NO": 999,
    "REV_AT_EPOCH": 10057,
    "BSTAR": 0.00026366,
    "MEAN_MOTION_DOT": 0.00003596,
    "MEAN_MOTION_DDOT": 0
   }
  },
  {
   "norad": 63205,
   "name": "QPS-SAR-9 (SUSANOO-I)",
   "intl": "2025-050A",
   "group": "sar",
   "gcat": {
    "class": "B",
    "category": "IMG-R",
    "owner": "QPS",
    "state": "J"
   },
   "omm": {
    "OBJECT_NAME": "QPS-SAR-9 (SUSANOO-I)",
    "OBJECT_ID": "2025-050A",
    "EPOCH": "2026-06-19T04:16:51.894624",
    "MEAN_MOTION": 15.03156855,
    "ECCENTRICITY": 0.0004091,
    "INCLINATION": 42.0193,
    "RA_OF_ASC_NODE": 91.2349,
    "ARG_OF_PERICENTER": 185.776,
    "MEAN_ANOMALY": 174.302,
    "EPHEMERIS_TYPE": 0,
    "CLASSIFICATION_TYPE": "U",
    "NORAD_CAT_ID": 63205,
    "ELEMENT_SET_NO": 999,
    "REV_AT_EPOCH": 6926,
    "BSTAR": 0.00032682,
    "MEAN_MOTION_DOT": 0.00004305,
    "MEAN_MOTION_DDOT": 0
   }
  },
  {
   "norad": 32382,
   "name": "RADARSAT-2",
   "intl": "2007-061A",
   "group": "resource",
   "gcat": {
    "class": "C",
    "category": "IMG-R",
    "owner": "CSA",
    "state": "CA"
   },
   "omm": {
    "OBJECT_NAME": "RADARSAT-2",
    "OBJECT_ID": "2007-061A",
    "EPOCH": "2026-06-19T03:17:11.548608",
    "MEAN_MOTION": 14.29982532,
    "ECCENTRICITY": 0.0001314,
    "INCLINATION": 98.5773,
    "RA_OF_ASC_NODE": 177.0418,
    "ARG_OF_PERICENTER": 84.66,
    "MEAN_ANOMALY": 275.4732,
    "EPHEMERIS_TYPE": 0,
    "CLASSIFICATION_TYPE": "U",
    "NORAD_CAT_ID": 32382,
    "ELEMENT_SET_NO": 999,
    "REV_AT_EPOCH": 96623,
    "BSTAR": 0.000069784,
    "MEAN_MOTION_DOT": 0.00000136,
    "MEAN_MOTION_DDOT": 0
   }
  },
  {
   "norad": 37791,
   "name": "RASAT",
   "intl": "2011-044D",
   "group": "resource",
   "gcat": {
    "class": null,
    "category": null,
    "owner": null,
    "state": null
   },
   "omm": {
    "OBJECT_NAME": "RASAT",
    "OBJECT_ID": "2011-044D",
    "EPOCH": "2026-06-19T05:17:56.899680",
    "MEAN_MOTION": 14.68167092,
    "ECCENTRICITY": 0.0020373,
    "INCLINATION": 98.058,
    "RA_OF_ASC_NODE": 261.5864,
    "ARG_OF_PERICENTER": 182.2094,
    "MEAN_ANOMALY": 232.6785,
    "EPHEMERIS_TYPE": 0,
    "CLASSIFICATION_TYPE": "U",
    "NORAD_CAT_ID": 37791,
    "ELEMENT_SET_NO": 999,
    "REV_AT_EPOCH": 79348,
    "BSTAR": 0.000037221,
    "MEAN_MOTION_DOT": 0.00000166,
    "MEAN_MOTION_DDOT": 0
   }
  },
  {
   "norad": 44322,
   "name": "RCM-1",
   "intl": "2019-033A",
   "group": "sar",
   "gcat": {
    "class": "C",
    "category": "IMG-R",
    "owner": "CSA",
    "state": "CA"
   },
   "omm": {
    "OBJECT_NAME": "RCM-1",
    "OBJECT_ID": "2019-033A",
    "EPOCH": "2026-06-19T01:53:22.399872",
    "MEAN_MOTION": 14.92588572,
    "ECCENTRICITY": 0.0001454,
    "INCLINATION": 97.7614,
    "RA_OF_ASC_NODE": 177.497,
    "ARG_OF_PERICENTER": 88.9895,
    "MEAN_ANOMALY": 271.149,
    "EPHEMERIS_TYPE": 0,
    "CLASSIFICATION_TYPE": "U",
    "NORAD_CAT_ID": 44322,
    "ELEMENT_SET_NO": 999,
    "REV_AT_EPOCH": 38236,
    "BSTAR": 7.0516e-7,
    "MEAN_MOTION_DOT": -4.8e-7,
    "MEAN_MOTION_DDOT": 0
   }
  },
  {
   "norad": 44324,
   "name": "RCM-2",
   "intl": "2019-033C",
   "group": "sar",
   "gcat": {
    "class": "C",
    "category": "IMG-R",
    "owner": "CSA",
    "state": "CA"
   },
   "omm": {
    "OBJECT_NAME": "RCM-2",
    "OBJECT_ID": "2019-033C",
    "EPOCH": "2026-06-19T06:10:58.969344",
    "MEAN_MOTION": 14.92587561,
    "ECCENTRICITY": 0.0001427,
    "INCLINATION": 97.7613,
    "RA_OF_ASC_NODE": 177.718,
    "ARG_OF_PERICENTER": 92.3404,
    "MEAN_ANOMALY": 267.7978,
    "EPHEMERIS_TYPE": 0,
    "CLASSIFICATION_TYPE": "U",
    "NORAD_CAT_ID": 44324,
    "ELEMENT_SET_NO": 999,
    "REV_AT_EPOCH": 38239,
    "BSTAR": 8.3822e-7,
    "MEAN_MOTION_DOT": -4.7e-7,
    "MEAN_MOTION_DDOT": 0
   }
  },
  {
   "norad": 44323,
   "name": "RCM-3",
   "intl": "2019-033B",
   "group": "sar",
   "gcat": {
    "class": "C",
    "category": "IMG-R",
    "owner": "CSA",
    "state": "CA"
   },
   "omm": {
    "OBJECT_NAME": "RCM-3",
    "OBJECT_ID": "2019-033B",
    "EPOCH": "2026-06-19T04:02:28.173696",
    "MEAN_MOTION": 14.92586834,
    "ECCENTRICITY": 0.0001481,
    "INCLINATION": 97.7598,
    "RA_OF_ASC_NODE": 177.68,
    "ARG_OF_PERICENTER": 90.9506,
    "MEAN_ANOMALY": 269.1883,
    "EPHEMERIS_TYPE": 0,
    "CLASSIFICATION_TYPE": "U",
    "NORAD_CAT_ID": 44323,
    "ELEMENT_SET_NO": 999,
    "REV_AT_EPOCH": 38239,
    "BSTAR": 0.000020639,
    "MEAN_MOTION_DOT": 0.00000156,
    "MEAN_MOTION_DDOT": 0
   }
  },
  {
   "norad": 37387,
   "name": "RESOURCESAT-2",
   "intl": "2011-015A",
   "group": "resource",
   "gcat": {
    "class": null,
    "category": "IMG",
    "owner": "ISRO",
    "state": "IN"
   },
   "omm": {
    "OBJECT_NAME": "RESOURCESAT-2",
    "OBJECT_ID": "2011-015A",
    "EPOCH": "2026-06-19T04:48:42.375744",
    "MEAN_MOTION": 14.21600256,
    "ECCENTRICITY": 0.001022,
    "INCLINATION": 98.7642,
    "RA_OF_ASC_NODE": 237.6281,
    "ARG_OF_PERICENTER": 249.014,
    "MEAN_ANOMALY": 110.9944,
    "EPHEMERIS_TYPE": 0,
    "CLASSIFICATION_TYPE": "U",
    "NORAD_CAT_ID": 37387,
    "ELEMENT_SET_NO": 999,
    "REV_AT_EPOCH": 78646,
    "BSTAR": 0.000055934,
    "MEAN_MOTION_DOT": 7.8e-7,
    "MEAN_MOTION_DDOT": 0
   }
  },
  {
   "norad": 41877,
   "name": "RESOURCESAT-2A",
   "intl": "2016-074A",
   "group": "resource",
   "gcat": {
    "class": "C",
    "category": "IMG",
    "owner": "ISRO",
    "state": "IN"
   },
   "omm": {
    "OBJECT_NAME": "RESOURCESAT-2A",
    "OBJECT_ID": "2016-074A",
    "EPOCH": "2026-06-19T04:22:27.308064",
    "MEAN_MOTION": 14.21617543,
    "ECCENTRICITY": 0.0003298,
    "INCLINATION": 98.7526,
    "RA_OF_ASC_NODE": 243.6706,
    "ARG_OF_PERICENTER": 81.2836,
    "MEAN_ANOMALY": 278.8715,
    "EPHEMERIS_TYPE": 0,
    "CLASSIFICATION_TYPE": "U",
    "NORAD_CAT_ID": 41877,
    "ELEMENT_SET_NO": 999,
    "REV_AT_EPOCH": 49458,
    "BSTAR": 0.00011977,
    "MEAN_MOTION_DOT": 0.00000219,
    "MEAN_MOTION_DDOT": 0
   }
  }
 ]
}
